{
    "links": {
        "self": "http://www.neowsapp.com/rest/v1/neo/3655873?api_key=iIulBulltgU6a56xZRHN4H3l9WmuAYTsLGpBGhQ2"
    },
    "id": "3655873",
    "neo_reference_id": "3655873",
    "name": "(2014 AC33)",
    "designation": "2014 AC33",
    "nasa_jpl_url": "http://ssd.jpl.nasa.gov/sbdb.cgi?sstr=3655873",
    "absolute_magnitude_h": 25.5,
    "estimated_diameter": {
        "kilometers": {
            "estimated_diameter_min": 0.0211132445,
            "estimated_diameter_max": 0.0472106499
        },
        "meters": {
            "estimated_diameter_min": 21.113244479,
            "estimated_diameter_max": 47.2106498806
        },
        "miles": {
            "estimated_diameter_min": 0.0131191578,
            "estimated_diameter_max": 0.0293353287
        },
        "feet": {
            "estimated_diameter_min": 69.2691770164,
            "estimated_diameter_max": 154.8905885541
        }
    },
    "is_potentially_hazardous_asteroid": false,
    "close_approach_data": [
        {
            "close_approach_date": "2014-01-03",
            "close_approach_date_full": "2014-Jan-03 09:37",
            "epoch_date_close_approach": 1388741820000,
            "relative_velocity": {
                "kilometers_per_second": "5.3466698555",
                "kilometers_per_hour": "19248.0114797148",
                "miles_per_hour": "11959.965799715"
            },
            "miss_distance": {
                "astronomical": "0.0354137834",
                "lunar": "13.7759617426",
                "kilometers": "5297826.565281358",
                "miles": "3291916.7794564204"
            },
            "orbiting_body": "Earth"
        }
    ],
    "orbital_data": {
        "orbit_id": "7",
        "orbit_determination_date": "2017-04-06 08:42:55",
        "first_observation_date": "2014-01-09",
        "last_observation_date": "2014-01-12",
        "data_arc_in_days": 3,
        "observations_used": 33,
        "orbit_uncertainty": "8",
        "minimum_orbit_intersection": ".0315689",
        "jupiter_tisserand_invariant": "4.119",
        "epoch_osculation": "2456668.5",
        "eccentricity": ".3999509013524358",
        "semi_major_axis": "1.691356786691058",
        "inclination": "4.211184185071856",
        "ascending_node_longitude": "289.3874689573204",
        "orbital_period": "803.435972167809",
        "perihelion_distance": "1.01489711534541",
        "perihelion_argument": "178.2900666637073",
        "aphelion_distance": "2.367816458036707",
        "perihelion_time": "2456664.636993290562",
        "mean_anomaly": "1.730918783291939",
        "mean_motion": ".448075531182227",
        "equinox": "J2000",
        "orbit_class": {
            "orbit_class_type": "APO",
            "orbit_class_description": "Near-Earth asteroid orbits which cross the Earth’s orbit similar to that of 1862 Apollo",
            "orbit_class_range": "a (semi-major axis) > 1.0 AU; q (perihelion) < 1.017 AU"
        }
    },
    "is_sentry_object": false
}